$$SOE
2460147.500000000, A.D. 2023-Jul-22 00:00:00.0000, -3.823700731363135E+09, -5.542401266590471E+09, -5.332902135992503E+08,
2460154.500000000, A.D. 2023-Jul-29 00:00:00.0000, -3.821350521459759E+09, -5.543644941473416E+09, -5.337957948933146E+08,
2460161.500000000, A.D. 2023-Aug-05 00:00:00.0000, -3.818999793052802E+09, -5.544887767608982E+09, -5.343012897022915E+08,
2460168.500000000, A.D. 2023-Aug-12 00:00:00.0000, -3.816648548740043E+09, -5.546129746661800E+09, -5.348066977868710E+08,
2460175.500000000, A.D. 2023-Aug-19 00:00:00.0000, -3.814296790814613E+09, -5.547370880785233E+09, -5.353120189379363E+08,
2460182.500000000, A.D. 2023-Aug-26 00:00:00.0000, -3.811944521264246E+09, -5.548611172531384E+09, -5.358172529704766E+08,
2460189.500000000, A.D. 2023-Sep-02 00:00:00.0000, -3.809591741793530E+09, -5.549850624832416E+09, -5.363223997221770E+08,
2460196.500000000, A.D. 2023-Sep-09 00:00:00.0000, -3.807238453832538E+09, -5.551089241094393E+09, -5.368274590633581E+08,
2460203.500000000, A.D. 2023-Sep-16 00:00:00.0000, -3.804884658363406E+09, -5.552327025461677E+09, -5.373324309384053E+08,
2460210.500000000, A.D. 2023-Sep-23 00:00:00.0000, -3.802530355148453E+09, -5.553563982965073E+09, -5.378373154533885E+08,
2460217.500000000, A.D. 2023-Sep-30 00:00:00.0000, -3.800175541699400E+09, -5.554800118363004E+09, -5.383421128813016E+08,
2460224.500000000, A.D. 2023-Oct-07 00:00:00.0000, -3.797820214341442E+09, -5.556035434218562E+09, -5.388468234132783E+08,
2460231.500000000, A.D. 2023-Oct-14 00:00:00.0000, -3.795464370332261E+09, -5.557269931525570E+09, -5.393514470217450E+08,
2460238.500000000, A.D. 2023-Oct-21 00:00:00.0000, -3.793108007807387E+09, -5.558503611280964E+09, -5.398559836004941E+08,
2460245.500000000, A.D. 2023-Oct-28 00:00:00.0000, -3.790751124976254E+09, -5.559736474743359E+09, -5.403604330660896E+08,
2460252.500000000, A.D. 2023-Nov-04 00:00:00.0000, -3.788393719818988E+09, -5.560968523148181E+09, -5.408647953686609E+08,
2460259.500000000, A.D. 2023-Nov-11 00:00:00.0000, -3.786035790106366E+09, -5.562199757479282E+09, -5.413690704771223E+08,
2460266.500000000, A.D. 2023-Nov-18 00:00:00.0000, -3.783677333523434E+09, -5.563430178361278E+09, -5.418732583639665E+08,
2460273.500000000, A.D. 2023-Nov-25 00:00:00.0000, -3.781318347823965E+09, -5.564659786050117E+09, -5.423773589942305E+08,
2460280.500000000, A.D. 2023-Dec-02 00:00:00.0000, -3.778958830987579E+09, -5.565888580533039E+09, -5.428813723219619E+08,
2460287.500000000, A.D. 2023-Dec-09 00:00:00.0000, -3.776598781301689E+09, -5.567116561796834E+09, -5.433852983060255E+08,
2460294.500000000, A.D. 2023-Dec-16 00:00:00.0000, -3.774238197080725E+09, -5.568343730251857E+09, -5.438891369705596E+08,
2460301.500000000, A.D. 2023-Dec-23 00:00:00.0000, -3.771877075674192E+09, -5.569570086624337E+09, -5.443928884859035E+08,
2460308.500000000, A.D. 2023-Dec-30 00:00:00.0000, -3.769515413103778E+09, -5.570795630267731E+09, -5.448965530614336E+08,
2460315.500000000, A.D. 2024-Jan-06 00:00:00.0000, -3.767153206101964E+09, -5.572020358253836E+09, -5.454001306808403E+08,
2460322.500000000, A.D. 2024-Jan-13 00:00:00.0000, -3.764790453379388E+09, -5.573244267050564E+09, -5.459036211187296E+08,
2460329.500000000, A.D. 2024-Jan-20 00:00:00.0000, -3.762427154897415E+09, -5.574467353701820E+09, -5.464070240989630E+08,
2460336.500000000, A.D. 2024-Jan-27 00:00:00.0000, -3.760063311174637E+09, -5.575689615857245E+09, -5.469103393555961E+08,
2460343.500000000, A.D. 2024-Feb-03 00:00:00.0000, -3.757698923055694E+09, -5.576911051600469E+09, -5.474135666348939E+08,
2460350.500000000, A.D. 2024-Feb-10 00:00:00.0000, -3.755333991665025E+09, -5.578131659367006E+09, -5.479167056878510E+08,
2460357.500000000, A.D. 2024-Feb-17 00:00:00.0000, -3.752968518406881E+09, -5.579351437943831E+09, -5.484197562654853E+08,
2460364.500000000, A.D. 2024-Feb-24 00:00:00.0000, -3.750602504975644E+09, -5.580570386535856E+09, -5.489227181191299E+08,
2460371.500000000, A.D. 2024-Mar-02 00:00:00.0000, -3.748235953347099E+09, -5.581788504931861E+09, -5.494255910111728E+08,
2460378.500000000, A.D. 2024-Mar-09 00:00:00.0000, -3.745868865611870E+09, -5.583005793832678E+09, -5.499283747542167E+08,
2460385.500000000, A.D. 2024-Mar-16 00:00:00.0000, -3.743501243255696E+09, -5.584222255144428E+09, -5.504310692988212E+08,
2460392.500000000, A.D. 2024-Mar-23 00:00:00.0000, -3.741133085990137E+09, -5.585437891127699E+09, -5.509336747697570E+08,
2460399.500000000, A.D. 2024-Mar-30 00:00:00.0000, -3.738764392374848E+09, -5.586652702429510E+09, -5.514361912474017E+08,
2460406.500000000, A.D. 2024-Apr-06 00:00:00.0000, -3.736395161975396E+09, -5.587866688365663E+09, -5.519386185929799E+08,
2460413.500000000, A.D. 2024-Apr-13 00:00:00.0000, -3.734025395505470E+09, -5.589079848617029E+09, -5.524409565750167E+08,
2460420.500000000, A.D. 2024-Apr-20 00:00:00.0000, -3.731655093905660E+09, -5.590292183663157E+09, -5.529432049909008E+08,
2460427.500000000, A.D. 2024-Apr-27 00:00:00.0000, -3.729284257875798E+09, -5.591503694514545E+09, -5.534453636902764E+08,
2460434.500000000, A.D. 2024-May-04 00:00:00.0000, -3.726912887772958E+09, -5.592714382446903E+09, -5.539474325657253E+08,
2460441.500000000, A.D. 2024-May-11 00:00:00.0000, -3.724540983636775E+09, -5.593924248839026E+09, -5.544494115408263E+08,
2460448.500000000, A.D. 2024-May-18 00:00:00.0000, -3.722168545260089E+09, -5.595133295092366E+09, -5.549513005612116E+08,
2460455.500000000, A.D. 2024-May-25 00:00:00.0000, -3.719795572280210E+09, -5.596341522639135E+09, -5.554530995912738E+08,
2460462.500000000, A.D. 2024-Jun-01 00:00:00.0000, -3.717422064230929E+09, -5.597548933096012E+09, -5.559548086265137E+08,
2460469.500000000, A.D. 2024-Jun-08 00:00:00.0000, -3.715048020308957E+09, -5.598755528586126E+09, -5.564564277457311E+08,
2460476.500000000, A.D. 2024-Jun-15 00:00:00.0000, -3.712673438455224E+09, -5.599961311683928E+09, -5.569579571949034E+08,
2460483.500000000, A.D. 2024-Jun-22 00:00:00.0000, -3.710298314756289E+09, -5.601166283807583E+09, -5.574593973142538E+08,
2460490.500000000, A.D. 2024-Jun-29 00:00:00.0000, -3.707922645287479E+09, -5.602370443879513E+09, -5.579607482624288E+08,
2460497.500000000, A.D. 2024-Jul-06 00:00:00.0000, -3.705546427752753E+09, -5.603573789726019E+09, -5.584620099821367E+08,
2460504.500000000, A.D. 2024-Jul-13 00:00:00.0000, -3.703169660972044E+09, -5.604776319391810E+09, -5.589631823550870E+08,
2460511.500000000, A.D. 2024-Jul-20 00:00:00.0000, -3.700792344201721E+09, -5.605978031220715E+09, -5.594642652701099E+08,
2460518.500000000, A.D. 2024-Jul-27 00:00:00.0000, -3.698414476944191E+09, -5.607178923661951E+09, -5.599652586227181E+08,
2460525.500000000, A.D. 2024-Aug-03 00:00:00.0000, -3.696036058973685E+09, -5.608378995176831E+09, -5.604661623018415E+08,
2460532.500000000, A.D. 2024-Aug-10 00:00:00.0000, -3.693657090412461E+09, -5.609578244250170E+09, -5.609669761794331E+08,
2460539.500000000, A.D. 2024-Aug-17 00:00:00.0000, -3.691277571810101E+09, -5.610776669484342E+09, -5.614677001057370E+08,
2460546.500000000, A.D. 2024-Aug-24 00:00:00.0000, -3.688897504198062E+09, -5.611974269797955E+09, -5.619683339147956E+08,
2460553.500000000, A.D. 2024-Aug-31 00:00:00.0000, -3.686516889003860E+09, -5.613171044790173E+09, -5.624688774561019E+08,
2460560.500000000, A.D. 2024-Sep-07 00:00:00.0000, -3.684135727459376E+09, -5.614366995144024E+09, -5.629693306758511E+08,
2460567.500000000, A.D. 2024-Sep-14 00:00:00.0000, -3.681754019418070E+09, -5.615562122072476E+09, -5.634696936744764E+08,
2460574.500000000, A.D. 2024-Sep-21 00:00:00.0000, -3.679371763609892E+09, -5.616756425394503E+09, -5.639699665208647E+08,
2460581.500000000, A.D. 2024-Sep-28 00:00:00.0000, -3.676988959821417E+09, -5.617949903468566E+09, -5.644701490425208E+08,
2460588.500000000, A.D. 2024-Oct-05 00:00:00.0000, -3.674605609331485E+09, -5.619142554981760E+09, -5.649702409282401E+08,
2460595.500000000, A.D. 2024-Oct-12 00:00:00.0000, -3.672221713962977E+09, -5.620334379614342E+09, -5.654702418667939E+08,
2460602.500000000, A.D. 2024-Oct-19 00:00:00.0000, -3.669837275501638E+09, -5.621525377850353E+09, -5.659701515832112E+08,
2460609.500000000, A.D. 2024-Oct-26 00:00:00.0000, -3.667452295514300E+09, -5.622715550735503E+09, -5.664699698351915E+08,
2460616.500000000, A.D. 2024-Nov-02 00:00:00.0000, -3.665066775309060E+09, -5.623904899730507E+09, -5.669696964053702E+08,
2460623.500000000, A.D. 2024-Nov-09 00:00:00.0000, -3.662680715940681E+09, -5.625093426638846E+09, -5.674693310965905E+08,
2460630.500000000, A.D. 2024-Nov-16 00:00:00.0000, -3.660294118235161E+09, -5.626281133608450E+09, -5.679688737324650E+08,
2460637.500000000, A.D. 2024-Nov-23 00:00:00.0000, -3.657906982786378E+09, -5.627468023256862E+09, -5.684683241715672E+08,
2460644.500000000, A.D. 2024-Nov-30 00:00:00.0000, -3.655519309716410E+09, -5.628654098962317E+09, -5.689676823577418E+08,
2460651.500000000, A.D. 2024-Dec-07 00:00:00.0000, -3.653131097779950E+09, -5.629839364899863E+09, -5.694669484105535E+08,
2460658.500000000, A.D. 2024-Dec-14 00:00:00.0000, -3.650742343501362E+09, -5.631023824598399E+09, -5.699661225925348E+08,
2460665.500000000, A.D. 2024-Dec-21 00:00:00.0000, -3.648353042662881E+09, -5.632207479259232E+09, -5.704652050418491E+08,
2460672.500000000, A.D. 2024-Dec-28 00:00:00.0000, -3.645963192171411E+09, -5.633390328803427E+09, -5.709641956935787E+08,
2460679.500000000, A.D. 2025-Jan-04 00:00:00.0000, -3.643572789706643E+09, -5.634572373271683E+09, -5.714630944335134E+08,
2460686.500000000, A.D. 2025-Jan-11 00:00:00.0000, -3.641181832971672E+09, -5.635753612916862E+09, -5.719619011814511E+08,
2460693.500000000, A.D. 2025-Jan-18 00:00:00.0000, -3.638790319462906E+09, -5.636934047907964E+09, -5.724606158948023E+08,
2460700.500000000, A.D. 2025-Jan-25 00:00:00.0000, -3.636398246515675E+09, -5.638113678120026E+09, -5.729592385533113E+08,
2460707.500000000, A.D. 2025-Feb-01 00:00:00.0000, -3.634005611435873E+09, -5.639292503040154E+09, -5.734577691444900E+08,
$$EOE